CCSDS_OMM_VERS = 2.0
CREATION_DATE  = 
ORIGINATOR     = 

OBJECT_NAME    = CZ-2D R/B
OBJECT_ID      = 2025-222C
CENTER_NAME    = EARTH
REF_FRAME      = TEME
TIME_SYSTEM    = UTC
MEAN_ELEMENT_THEORY = SGP/SGP4

EPOCH          = 2025-10-27T04:59:01.495680
MEAN_MOTION    = 14.99322272
ECCENTRICITY   = .00565913
INCLINATION    = 34.9022
RA_OF_ASC_NODE = 218.1253
ARG_OF_PERICENTER = 217.7856
MEAN_ANOMALY   = 141.8868

EPHEMERIS_TYPE = 0
CLASSIFICATION_TYPE = U
NORAD_CAT_ID   = 65853
ELEMENT_SET_NO = 999
REV_AT_EPOCH   = 422
BSTAR          = .22302943E-3
MEAN_MOTION_DOT = .285E-4
MEAN_MOTION_DDOT = 0

CCSDS_OMM_VERS = 2.0
CREATION_DATE  = 
ORIGINATOR     = 

OBJECT_NAME    = STARLINK-35208
OBJECT_ID      = 2025-223A
CENTER_NAME    = EARTH
REF_FRAME      = TEME
TIME_SYSTEM    = UTC
MEAN_ELEMENT_THEORY = SGP/SGP4

EPOCH          = 2025-10-27T12:00:02.000160
MEAN_MOTION    = 15.39573939
ECCENTRICITY   = .0000832
INCLINATION    = 53.1587
RA_OF_ASC_NODE = 195.5662
ARG_OF_PERICENTER = 92.5550
MEAN_ANOMALY   = 319.7252

EPHEMERIS_TYPE = 0
CLASSIFICATION_TYPE = U
NORAD_CAT_ID   = 65854
ELEMENT_SET_NO = 999
REV_AT_EPOCH   = 505
BSTAR          = .14298E-2
MEAN_MOTION_DOT = .57135E-3
MEAN_MOTION_DDOT = 0

CCSDS_OMM_VERS = 2.0
CREATION_DATE  = 
ORIGINATOR     = 

OBJECT_NAME    = STARLINK-35200
OBJECT_ID      = 2025-223B
CENTER_NAME    = EARTH
REF_FRAME      = TEME
TIME_SYSTEM    = UTC
MEAN_ELEMENT_THEORY = SGP/SGP4

EPOCH          = 2025-10-27T09:47:31.618176
MEAN_MOTION    = 15.49334998
ECCENTRICITY   = .0000328
INCLINATION    = 53.1592
RA_OF_ASC_NODE = 195.8057
ARG_OF_PERICENTER = 112.1902
MEAN_ANOMALY   = 247.9142

EPHEMERIS_TYPE = 0
CLASSIFICATION_TYPE = U
NORAD_CAT_ID   = 65855
ELEMENT_SET_NO = 999
REV_AT_EPOCH   = 376
BSTAR          = .12097E-2
MEAN_MOTION_DOT = .67473E-3
MEAN_MOTION_DDOT = 0

CCSDS_OMM_VERS = 2.0
CREATION_DATE  = 
ORIGINATOR     = 

OBJECT_NAME    = STARLINK-35459
OBJECT_ID      = 2025-223C
CENTER_NAME    = EARTH
REF_FRAME      = TEME
TIME_SYSTEM    = UTC
MEAN_ELEMENT_THEORY = SGP/SGP4

EPOCH          = 2025-10-27T12:00:02.000160
MEAN_MOTION    = 15.41135099
ECCENTRICITY   = .0000609
INCLINATION    = 53.1589
RA_OF_ASC_NODE = 195.4139
ARG_OF_PERICENTER = 108.4015
MEAN_ANOMALY   = 20.3113

EPHEMERIS_TYPE = 0
CLASSIFICATION_TYPE = U
NORAD_CAT_ID   = 65856
ELEMENT_SET_NO = 999
REV_AT_EPOCH   = 505
BSTAR          = -.55108E-1
MEAN_MOTION_DOT = -.2057233E-1
MEAN_MOTION_DDOT = 0

CCSDS_OMM_VERS = 2.0
CREATION_DATE  = 
ORIGINATOR     = 

OBJECT_NAME    = STARLINK-35489
OBJECT_ID      = 2025-223D
CENTER_NAME    = EARTH
REF_FRAME      = TEME
TIME_SYSTEM    = UTC
MEAN_ELEMENT_THEORY = SGP/SGP4

EPOCH          = 2025-10-27T06:40:45.482016
MEAN_MOTION    = 15.49341917
ECCENTRICITY   = .0001231
INCLINATION    = 53.1591
RA_OF_ASC_NODE = 196.4176
ARG_OF_PERICENTER = 99.1773
MEAN_ANOMALY   = 260.9375

EPHEMERIS_TYPE = 0
CLASSIFICATION_TYPE = U
NORAD_CAT_ID   = 65857
ELEMENT_SET_NO = 999
REV_AT_EPOCH   = 374
BSTAR          = .1302E-2
MEAN_MOTION_DOT = .72725E-3
MEAN_MOTION_DDOT = 0

CCSDS_OMM_VERS = 2.0
CREATION_DATE  = 
ORIGINATOR     = 

OBJECT_NAME    = STARLINK-35199
OBJECT_ID      = 2025-223E
CENTER_NAME    = EARTH
REF_FRAME      = TEME
TIME_SYSTEM    = UTC
MEAN_ELEMENT_THEORY = SGP/SGP4

EPOCH          = 2025-10-27T12:52:20.028288
MEAN_MOTION    = 15.47886575
ECCENTRICITY   = .0001711
INCLINATION    = 53.1590
RA_OF_ASC_NODE = 195.1840
ARG_OF_PERICENTER = 232.2089
MEAN_ANOMALY   = 127.8764

EPHEMERIS_TYPE = 0
CLASSIFICATION_TYPE = U
NORAD_CAT_ID   = 65858
ELEMENT_SET_NO = 999
REV_AT_EPOCH   = 378
BSTAR          = -.16663E-2
MEAN_MOTION_DOT = -.87626E-3
MEAN_MOTION_DDOT = 0

CCSDS_OMM_VERS = 2.0
CREATION_DATE  = 
ORIGINATOR     = 

OBJECT_NAME    = STARLINK-35408
OBJECT_ID      = 2025-223F
CENTER_NAME    = EARTH
REF_FRAME      = TEME
TIME_SYSTEM    = UTC
MEAN_ELEMENT_THEORY = SGP/SGP4

EPOCH          = 2025-10-27T12:00:02.000160
MEAN_MOTION    = 15.39568529
ECCENTRICITY   = .0001348
INCLINATION    = 53.1586
RA_OF_ASC_NODE = 195.5143
ARG_OF_PERICENTER = 98.1823
MEAN_ANOMALY   = 339.8540

EPHEMERIS_TYPE = 0
CLASSIFICATION_TYPE = U
NORAD_CAT_ID   = 65859
ELEMENT_SET_NO = 999
REV_AT_EPOCH   = 505
BSTAR          = .1351E-2
MEAN_MOTION_DOT = .5393E-3
MEAN_MOTION_DDOT = 0

CCSDS_OMM_VERS = 2.0
CREATION_DATE  = 
ORIGINATOR     = 

OBJECT_NAME    = STARLINK-35303
OBJECT_ID      = 2025-223G
CENTER_NAME    = EARTH
REF_FRAME      = TEME
TIME_SYSTEM    = UTC
MEAN_ELEMENT_THEORY = SGP/SGP4

EPOCH          = 2025-10-27T12:00:02.000160
MEAN_MOTION    = 15.43202428
ECCENTRICITY   = .0001226
INCLINATION    = 53.1592
RA_OF_ASC_NODE = 195.3718
ARG_OF_PERICENTER = 89.4553
MEAN_ANOMALY   = 60.7521

EPHEMERIS_TYPE = 0
CLASSIFICATION_TYPE = U
NORAD_CAT_ID   = 65860
ELEMENT_SET_NO = 999
REV_AT_EPOCH   = 505
BSTAR          = -.51397E-1
MEAN_MOTION_DOT = -.2057846E-1
MEAN_MOTION_DDOT = 0

CCSDS_OMM_VERS = 2.0
CREATION_DATE  = 
ORIGINATOR     = 

OBJECT_NAME    = STARLINK-35258
OBJECT_ID      = 2025-223H
CENTER_NAME    = EARTH
REF_FRAME      = TEME
TIME_SYSTEM    = UTC
MEAN_ELEMENT_THEORY = SGP/SGP4

EPOCH          = 2025-10-27T05:06:52.418880
MEAN_MOTION    = 15.49356041
ECCENTRICITY   = .0000146
INCLINATION    = 53.1587
RA_OF_ASC_NODE = 196.7203
ARG_OF_PERICENTER = 69.4227
MEAN_ANOMALY   = 290.6797

EPHEMERIS_TYPE = 0
CLASSIFICATION_TYPE = U
NORAD_CAT_ID   = 65861
ELEMENT_SET_NO = 999
REV_AT_EPOCH   = 373
BSTAR          = .1864E-2
MEAN_MOTION_DOT = .104795E-2
MEAN_MOTION_DDOT = 0

CCSDS_OMM_VERS = 2.0
CREATION_DATE  = 
ORIGINATOR     = 

OBJECT_NAME    = STARLINK-35386
OBJECT_ID      = 2025-223J
CENTER_NAME    = EARTH
REF_FRAME      = TEME
TIME_SYSTEM    = UTC
MEAN_ELEMENT_THEORY = SGP/SGP4

EPOCH          = 2025-10-27T08:10:41.226816
MEAN_MOTION    = 15.49335429
ECCENTRICITY   = .0001737
INCLINATION    = 53.1592
RA_OF_ASC_NODE = 196.0952
ARG_OF_PERICENTER = 55.8810
MEAN_ANOMALY   = 304.2363

EPHEMERIS_TYPE = 0
CLASSIFICATION_TYPE = U
NORAD_CAT_ID   = 65862
ELEMENT_SET_NO = 999
REV_AT_EPOCH   = 375
BSTAR          = .17944E-2
MEAN_MOTION_DOT = .10074E-2
MEAN_MOTION_DDOT = 0

CCSDS_OMM_VERS = 2.0
CREATION_DATE  = 
ORIGINATOR     = 

OBJECT_NAME    = STARLINK-35469
OBJECT_ID      = 2025-223K
CENTER_NAME    = EARTH
REF_FRAME      = TEME
TIME_SYSTEM    = UTC
MEAN_ELEMENT_THEORY = SGP/SGP4

EPOCH          = 2025-10-27T12:00:02.000160
MEAN_MOTION    = 15.39560535
ECCENTRICITY   = .0001319
INCLINATION    = 53.1585
RA_OF_ASC_NODE = 195.4625
ARG_OF_PERICENTER = 105.0214
MEAN_ANOMALY   = 358.8155

EPHEMERIS_TYPE = 0
CLASSIFICATION_TYPE = U
NORAD_CAT_ID   = 65863
ELEMENT_SET_NO = 999
REV_AT_EPOCH   = 505
BSTAR          = .15473E-2
MEAN_MOTION_DOT = .61875E-3
MEAN_MOTION_DDOT = 0

CCSDS_OMM_VERS = 2.0
CREATION_DATE  = 
ORIGINATOR     = 

OBJECT_NAME    = STARLINK-35471
OBJECT_ID      = 2025-223L
CENTER_NAME    = EARTH
REF_FRAME      = TEME
TIME_SYSTEM    = UTC
MEAN_ELEMENT_THEORY = SGP/SGP4

EPOCH          = 2025-10-27T08:10:11.455104
MEAN_MOTION    = 15.49328664
ECCENTRICITY   = .0001317
INCLINATION    = 53.1585
RA_OF_ASC_NODE = 196.0915
ARG_OF_PERICENTER = 78.5250
MEAN_ANOMALY   = 281.5907

EPHEMERIS_TYPE = 0
CLASSIFICATION_TYPE = U
NORAD_CAT_ID   = 65864
ELEMENT_SET_NO = 999
REV_AT_EPOCH   = 375
BSTAR          = .14419E-2
MEAN_MOTION_DOT = .80633E-3
MEAN_MOTION_DDOT = 0

