CZ-2D R/B               
1 65853U 25222C   25300.20765620  .00002850  00000+0  22303-3 0  9995
2 65853  34.9022 218.1253 0056591 217.7856 141.8868 14.99322272  4228
STARLINK-35208          
1 65854U 25223A   25300.50002315  .00057135  00000+0  14298-2 0  9994
2 65854  53.1587 195.5662 0000832  92.5550 319.7252 15.39573939  5055
STARLINK-35200          
1 65855U 25223B   25300.40800484  .00067473  00000+0  12097-2 0  9998
2 65855  53.1592 195.8057 0000328 112.1902 247.9142 15.49334998  3760
STARLINK-35459          
1 65856U 25223C   25300.50002315 -.02057233  00000+0 -55108-1 0  9993
2 65856  53.1589 195.4139 0000609 108.4015  20.3113 15.41135099  5057
STARLINK-35489          
1 65857U 25223D   25300.27830419  .00072725  00000+0  13020-2 0  9999
2 65857  53.1591 196.4176 0001231  99.1773 260.9375 15.49341917  3744
STARLINK-35199          
1 65858U 25223E   25300.53634292 -.00087626  00000+0 -16663-2 0  9994
2 65858  53.1590 195.1840 0001711 232.2089 127.8764 15.47886575  3780
STARLINK-35408          
1 65859U 25223F   25300.50002315  .00053930  00000+0  13510-2 0  9994
2 65859  53.1586 195.5143 0001348  98.1823 339.8540 15.39568529  5053
STARLINK-35303          
1 65860U 25223G   25300.50002315 -.02057846  00000+0 -51397-1 0  9994
2 65860  53.1592 195.3718 0001226  89.4553  60.7521 15.43202428  5053
STARLINK-35258          
1 65861U 25223H   25300.21310670  .00104795  00000+0  18640-2 0  9996
2 65861  53.1587 196.7203 0000146  69.4227 290.6797 15.49356041  3737
STARLINK-35386          
1 65862U 25223J   25300.34075494  .00100740  00000+0  17944-2 0  9995
2 65862  53.1592 196.0952 0001737  55.8810 304.2363 15.49335429  3752
STARLINK-35469          
1 65863U 25223K   25300.50002315  .00061875  00000+0  15473-2 0  9996
2 65863  53.1585 195.4625 0001319 105.0214 358.8155 15.39560535  5053
STARLINK-35471          
1 65864U 25223L   25300.34041036  .00080633  00000+0  14419-2 0  9994
2 65864  53.1585 196.0915 0001317  78.5250 281.5907 15.49328664  3753
